ONEWEB-0338             
1 49204U 21083U   26037.13379196 -.00000795  00000+0 -19887-2 0  9997
2 49204  87.9219 300.6143 0001248  82.8361 277.2914 13.20764797219513
ONEWEB-0339             
1 49205U 21083V   26037.25182962 -.00000030  00000+0 -11786-3 0  9997
2 49205  87.9030 346.2553 0001577  86.9685 273.1625 13.13469874213704
ONEWEB-0340             
1 49206U 21083W   26036.94365110 -.00000038  00000+0 -12873-3 0  9997
2 49206  87.9219   1.5065 0001877  80.7083 279.4261 13.18687288212676
ONEWEB-0341             
1 49207U 21083X   26036.95026809 -.00000010  00000+0 -57928-4 0  9999
2 49207  87.9218   1.5155 0002172  92.7228 267.4152 13.18686336212690
ONEWEB-0342             
1 49208U 21083Y   26036.76130709  .00000025  00000+0  29370-4 0  9998
2 49208  87.9220 300.6650 0001529  81.4421 278.6885 13.20773956219436
ONEWEB-0343             
1 49209U 21083Z   26036.95849591  .00000031  00000+0  44906-4 0  9995
2 49209  87.9220   1.5080 0001902  99.5766 260.5581 13.18687878212742
ONEWEB-0344             
1 49210U 21083AA  26037.24674344  .00000099  00000+0  23689-3 0  9990
2 49210  87.9020 346.2833 0002084  88.1789 271.9579 13.13470725213704
ONEWEB-0345             
1 49211U 21083AB  26036.93357039  .00000145  00000+0  36318-3 0  9990
2 49211  87.9025 346.3097 0002040  89.8723 270.2640 13.13469645213677
ONEWEB-0346             
1 49212U 21083AC  26036.95520854 -.00000030  00000+0 -10835-3 0  9991
2 49212  87.9207   1.5198 0002417  71.3070 288.8325 13.18685003212689
ONEWEB-0348             
1 49213U 21083AD  26036.75184817  .00000128  00000+0  28298-3 0  9993
2 49213  87.9218 300.6707 0002213  78.3933 281.7449 13.20772619219465
ONEWEB-0350             
1 49214U 21083AE  26037.24758165 -.00000033  00000+0 -12481-3 0  9996
2 49214  87.9030 346.2464 0002074  84.4140 275.7226 13.13472099213749
ONEWEB-0351             
1 49215U 21083AF  26037.19994872  .00000020  00000+0  16697-4 0  9996
2 49215  87.9218 300.5793 0001237 111.9758 248.1507 13.20772579219484
ONEWEB-0352             
1 49216U 21083AG  26037.30430699  .00000420  00000+0  11154-2 0  9997
2 49216  87.9020 346.2530 0001521  91.2630 268.8673 13.13470218213841
ONEWEB-0354             
1 49217U 21083AH  26036.77077882  .00000067  00000+0  13203-3 0  9994
2 49217  87.9221 300.6642 0001907  81.3034 278.8315 13.20774100219462
ONEWEB-0355             
1 49218U 21083AJ  26037.25703920 -.00000076  00000+0 -24276-3 0  9992
2 49218  87.9018 346.2747 0001742  87.4612 272.6716 13.13471584213716
ONEWEB-0357             
1 49219U 21083AK  26037.14640244  .00000091  00000+0  19114-3 0  9990
2 49219  87.9214 300.5845 0001537  82.5813 277.5495 13.20770047219514
ONEWEB-0332             
1 49279U 21090A   26037.21992079  .00000265  00000+0  67895-3 0  9990
2 49279  87.9017 315.8232 0001485  78.0671 282.0626 13.14504493210379
