[{"OBJECT_NAME":"ONEWEB-0338","OBJECT_ID":"2021-083U","EPOCH":"2026-02-06T03:12:39.625344","MEAN_MOTION":13.20764797,"ECCENTRICITY":0.00012481,"INCLINATION":87.9219,"RA_OF_ASC_NODE":300.6143,"ARG_OF_PERICENTER":82.8361,"MEAN_ANOMALY":277.2914,"EPHEMERIS_TYPE":0,"CLASSIFICATION_TYPE":"U","NORAD_CAT_ID":49204,"ELEMENT_SET_NO":999,"REV_AT_EPOCH":21951,"BSTAR":-0.001988732,"MEAN_MOTION_DOT":-7.95e-6,"MEAN_MOTION_DDOT":0},{"OBJECT_NAME":"ONEWEB-0339","OBJECT_ID":"2021-083V","EPOCH":"2026-02-06T06:02:38.079168","MEAN_MOTION":13.13469874,"ECCENTRICITY":0.00015779,"INCLINATION":87.903,"RA_OF_ASC_NODE":346.2553,"ARG_OF_PERICENTER":86.9685,"MEAN_ANOMALY":273.1625,"EPHEMERIS_TYPE":0,"CLASSIFICATION_TYPE":"U","NORAD_CAT_ID":49205,"ELEMENT_SET_NO":999,"REV_AT_EPOCH":21370,"BSTAR":-0.00011786243,"MEAN_MOTION_DOT":-3.0e-7,"MEAN_MOTION_DDOT":0},{"OBJECT_NAME":"ONEWEB-0340","OBJECT_ID":"2021-083W","EPOCH":"2026-02-05T22:38:51.455040","MEAN_MOTION":13.18687288,"ECCENTRICITY":0.0001877,"INCLINATION":87.9219,"RA_OF_ASC_NODE":1.5065,"ARG_OF_PERICENTER":80.7083,"MEAN_ANOMALY":279.4261,"EPHEMERIS_TYPE":0,"CLASSIFICATION_TYPE":"U","NORAD_CAT_ID":49206,"ELEMENT_SET_NO":999,"REV_AT_EPOCH":21267,"BSTAR":-0.00012873,"MEAN_MOTION_DOT":-3.8e-7,"MEAN_MOTION_DDOT":0},{"OBJECT_NAME":"ONEWEB-0341","OBJECT_ID":"2021-083X","EPOCH":"2026-02-05T22:48:23.162976","MEAN_MOTION":13.18686336,"ECCENTRICITY":0.0002172,"INCLINATION":87.9218,"RA_OF_ASC_NODE":1.5155,"ARG_OF_PERICENTER":92.7228,"MEAN_ANOMALY":267.4152,"EPHEMERIS_TYPE":0,"CLASSIFICATION_TYPE":"U","NORAD_CAT_ID":49207,"ELEMENT_SET_NO":999,"REV_AT_EPOCH":21269,"BSTAR":-5.7928e-5,"MEAN_MOTION_DOT":-1.0e-7,"MEAN_MOTION_DDOT":0},{"OBJECT_NAME":"ONEWEB-0342","OBJECT_ID":"2021-083Y","EPOCH":"2026-02-05T18:16:16.932576","MEAN_MOTION":13.20773956,"ECCENTRICITY":0.00015291,"INCLINATION":87.922,"RA_OF_ASC_NODE":300.665,"ARG_OF_PERICENTER":81.4421,"MEAN_ANOMALY":278.6885,"EPHEMERIS_TYPE":0,"CLASSIFICATION_TYPE":"U","NORAD_CAT_ID":49208,"ELEMENT_SET_NO":999,"REV_AT_EPOCH":21943,"BSTAR":2.9369715e-5,"MEAN_MOTION_DOT":2.5e-7,"MEAN_MOTION_DDOT":0},{"OBJECT_NAME":"ONEWEB-0343","OBJECT_ID":"2021-083Z","EPOCH":"2026-02-05T23:00:14.046624","MEAN_MOTION":13.18687878,"ECCENTRICITY":0.0001902,"INCLINATION":87.922,"RA_OF_ASC_NODE":1.508,"ARG_OF_PERICENTER":99.5766,"MEAN_ANOMALY":260.5581,"EPHEMERIS_TYPE":0,"CLASSIFICATION_TYPE":"U","NORAD_CAT_ID":49209,"ELEMENT_SET_NO":999,"REV_AT_EPOCH":21274,"BSTAR":4.4906e-5,"MEAN_MOTION_DOT":3.1e-7,"MEAN_MOTION_DDOT":0},{"OBJECT_NAME":"ONEWEB-0344","OBJECT_ID":"2021-083AA","EPOCH":"2026-02-06T05:55:18.633216","MEAN_MOTION":13.13470725,"ECCENTRICITY":0.00020848,"INCLINATION":87.902,"RA_OF_ASC_NODE":346.2833,"ARG_OF_PERICENTER":88.1789,"MEAN_ANOMALY":271.9579,"EPHEMERIS_TYPE":0,"CLASSIFICATION_TYPE":"U","NORAD_CAT_ID":49210,"ELEMENT_SET_NO":999,"REV_AT_EPOCH":21370,"BSTAR":0.00023689384,"MEAN_MOTION_DOT":9.9e-7,"MEAN_MOTION_DDOT":0},{"OBJECT_NAME":"ONEWEB-0345","OBJECT_ID":"2021-083AB","EPOCH":"2026-02-05T22:24:20.481696","MEAN_MOTION":13.13469645,"ECCENTRICITY":0.000204,"INCLINATION":87.9025,"RA_OF_ASC_NODE":346.3097,"ARG_OF_PERICENTER":89.8723,"MEAN_ANOMALY":270.264,"EPHEMERIS_TYPE":0,"CLASSIFICATION_TYPE":"U","NORAD_CAT_ID":49211,"ELEMENT_SET_NO":999,"REV_AT_EPOCH":21367,"BSTAR":0.00036318,"MEAN_MOTION_DOT":1.45e-6,"MEAN_MOTION_DDOT":0},{"OBJECT_NAME":"ONEWEB-0346","OBJECT_ID":"2021-083AC","EPOCH":"2026-02-05T22:55:30.017856","MEAN_MOTION":13.18685003,"ECCENTRICITY":0.0002417,"INCLINATION":87.9207,"RA_OF_ASC_NODE":1.5198,"ARG_OF_PERICENTER":71.307,"MEAN_ANOMALY":288.8325,"EPHEMERIS_TYPE":0,"CLASSIFICATION_TYPE":"U","NORAD_CAT_ID":49212,"ELEMENT_SET_NO":999,"REV_AT_EPOCH":21268,"BSTAR":-0.00010835,"MEAN_MOTION_DOT":-3.0e-7,"MEAN_MOTION_DDOT":0},{"OBJECT_NAME":"ONEWEB-0348","OBJECT_ID":"2021-083AD","EPOCH":"2026-02-05T18:02:39.681888","MEAN_MOTION":13.20772619,"ECCENTRICITY":0.00022134,"INCLINATION":87.9218,"RA_OF_ASC_NODE":300.6707,"ARG_OF_PERICENTER":78.3933,"MEAN_ANOMALY":281.7449,"EPHEMERIS_TYPE":0,"CLASSIFICATION_TYPE":"U","NORAD_CAT_ID":49213,"ELEMENT_SET_NO":999,"REV_AT_EPOCH":21946,"BSTAR":0.00028297856,"MEAN_MOTION_DOT":1.28e-6,"MEAN_MOTION_DDOT":0},{"OBJECT_NAME":"ONEWEB-0350","OBJECT_ID":"2021-083AE","EPOCH":"2026-02-06T05:56:31.054560","MEAN_MOTION":13.13472099,"ECCENTRICITY":0.00020744,"INCLINATION":87.903,"RA_OF_ASC_NODE":346.2464,"ARG_OF_PERICENTER":84.414,"MEAN_ANOMALY":275.7226,"EPHEMERIS_TYPE":0,"CLASSIFICATION_TYPE":"U","NORAD_CAT_ID":49214,"ELEMENT_SET_NO":999,"REV_AT_EPOCH":21374,"BSTAR":-0.00012480926,"MEAN_MOTION_DOT":-3.3e-7,"MEAN_MOTION_DDOT":0},{"OBJECT_NAME":"ONEWEB-0351","OBJECT_ID":"2021-083AF","EPOCH":"2026-02-06T04:47:55.569408","MEAN_MOTION":13.20772579,"ECCENTRICITY":0.00012373,"INCLINATION":87.9218,"RA_OF_ASC_NODE":300.5793,"ARG_OF_PERICENTER":111.9758,"MEAN_ANOMALY":248.1507,"EPHEMERIS_TYPE":0,"CLASSIFICATION_TYPE":"U","NORAD_CAT_ID":49215,"ELEMENT_SET_NO":999,"REV_AT_EPOCH":21948,"BSTAR":1.6697043e-5,"MEAN_MOTION_DOT":2.0e-7,"MEAN_MOTION_DDOT":0},{"OBJECT_NAME":"ONEWEB-0352","OBJECT_ID":"2021-083AG","EPOCH":"2026-02-06T07:18:12.123936","MEAN_MOTION":13.13470218,"ECCENTRICITY":0.00015219,"INCLINATION":87.902,"RA_OF_ASC_NODE":346.253,"ARG_OF_PERICENTER":91.263,"MEAN_ANOMALY":268.8673,"EPHEMERIS_TYPE":0,"CLASSIFICATION_TYPE":"U","NORAD_CAT_ID":49216,"ELEMENT_SET_NO":999,"REV_AT_EPOCH":21384,"BSTAR":0.0011154482,"MEAN_MOTION_DOT":4.2e-6,"MEAN_MOTION_DDOT":0},{"OBJECT_NAME":"ONEWEB-0354","OBJECT_ID":"2021-083AH","EPOCH":"2026-02-05T18:29:55.290048","MEAN_MOTION":13.207741,"ECCENTRICITY":0.00019077,"INCLINATION":87.9221,"RA_OF_ASC_NODE":300.6642,"ARG_OF_PERICENTER":81.3034,"MEAN_ANOMALY":278.8315,"EPHEMERIS_TYPE":0,"CLASSIFICATION_TYPE":"U","NORAD_CAT_ID":49217,"ELEMENT_SET_NO":999,"REV_AT_EPOCH":21946,"BSTAR":0.00013203277,"MEAN_MOTION_DOT":6.7e-7,"MEAN_MOTION_DDOT":0},{"OBJECT_NAME":"ONEWEB-0355","OBJECT_ID":"2021-083AJ","EPOCH":"2026-02-06T06:10:08.186880","MEAN_MOTION":13.13471584,"ECCENTRICITY":0.00017427,"INCLINATION":87.9018,"RA_OF_ASC_NODE":346.2747,"ARG_OF_PERICENTER":87.4612,"MEAN_ANOMALY":272.6716,"EPHEMERIS_TYPE":0,"CLASSIFICATION_TYPE":"U","NORAD_CAT_ID":49218,"ELEMENT_SET_NO":999,"REV_AT_EPOCH":21371,"BSTAR":-0.00024275924,"MEAN_MOTION_DOT":-7.6e-7,"MEAN_MOTION_DDOT":0},{"OBJECT_NAME":"ONEWEB-0357","OBJECT_ID":"2021-083AK","EPOCH":"2026-02-06T03:30:49.170816","MEAN_MOTION":13.20770047,"ECCENTRICITY":0.00015378,"INCLINATION":87.9214,"RA_OF_ASC_NODE":300.5845,"ARG_OF_PERICENTER":82.5813,"MEAN_ANOMALY":277.5495,"EPHEMERIS_TYPE":0,"CLASSIFICATION_TYPE":"U","NORAD_CAT_ID":49219,"ELEMENT_SET_NO":999,"REV_AT_EPOCH":21951,"BSTAR":0.00019113848,"MEAN_MOTION_DOT":9.1e-7,"MEAN_MOTION_DDOT":0},{"OBJECT_NAME":"ONEWEB-0332","OBJECT_ID":"2021-090A","EPOCH":"2026-02-06T05:16:41.156256","MEAN_MOTION":13.14504493,"ECCENTRICITY":0.00014854,"INCLINATION":87.9017,"RA_OF_ASC_NODE":315.8232,"ARG_OF_PERICENTER":78.0671,"MEAN_ANOMALY":282.0626,"EPHEMERIS_TYPE":0,"CLASSIFICATION_TYPE":"U","NORAD_CAT_ID":49279,"ELEMENT_SET_NO":999,"REV_AT_EPOCH":21037,"BSTAR":0.00067895187,"MEAN_MOTION_DOT":2.65e-6,"MEAN_MOTION_DDOT":0}]
